OBJECT_NAME,OBJECT_ID,EPOCH,MEAN_MOTION,ECCENTRICITY,INCLINATION,RA_OF_ASC_NODE,ARG_OF_PERICENTER,MEAN_ANOMALY,EPHEMERIS_TYPE,CLASSIFICATION_TYPE,NORAD_CAT_ID,ELEMENT_SET_NO,REV_AT_EPOCH,BSTAR,MEAN_MOTION_DOT,MEAN_MOTION_DDOT
ONEWEB-0395,2021-132G,2026-06-06T07:59:22.729344,13.11414842,.00019145,87.8893,23.2284,91.5798,268.5549,0,U,50475,999,21429,-.67698674E-3,-.227E-5,0
ONEWEB-0396,2021-132H,2026-06-06T13:04:06.216960,13.18685882,.00019848,87.9168,337.5725,88.0242,272.1117,0,U,50476,999,22023,-.62443147E-3,-.233E-5,0
ONEWEB-0397,2021-132J,2026-06-06T11:36:42.026400,13.18684715,.00019297,87.9167,337.5847,84.1117,276.0235,0,U,50477,999,22020,.15142179E-3,.73E-6,0
ONEWEB-0398,2021-132K,2026-06-06T12:42:35.333568,13.11420358,.00018027,87.8911,23.1780,97.6564,262.4769,0,U,50478,999,21421,.14353048E-2,.521E-5,0
ONEWEB-0399,2021-132L,2026-06-06T08:43:19.361856,13.11418827,.0002397,87.8907,23.2232,77.9819,282.1578,0,U,50479,999,21418,-.41409806E-3,-.134E-5,0
ONEWEB-0400,2021-132M,2026-06-06T12:54:24.240384,13.18685026,.00018015,87.9166,337.5635,97.6784,262.4553,0,U,50480,999,22020,.17838347E-3,.83E-6,0
ONEWEB-0401,2021-132N,2026-06-06T12:10:41.512224,13.18686288,.00017285,87.9167,337.5665,82.3016,277.8313,0,U,50481,999,22020,-.69059984E-3,-.259E-5,0
ONEWEB-0402,2021-132P,2026-06-06T11:17:17.819232,13.18686053,.0001693,87.9167,337.5637,75.6645,284.4675,0,U,50482,999,22022,-.53675945E-3,-.199E-5,0
ONEWEB-0403,2021-132Q,2026-06-06T11:53:41.631072,13.18685675,.00019809,87.9165,337.5826,91.2048,268.9311,0,U,50483,999,22018,-.61236955E-3,-.229E-5,0
ONEWEB-0404,2021-132R,2026-06-06T02:46:51.518784,13.11416474,.00020791,87.8892,23.2714,86.6536,273.4830,0,U,50484,999,21424,-.14341259E-2,-.496E-5,0
ONEWEB-0405,2021-132S,2026-06-06T12:13:08.641920,13.18686199,.00017937,87.9169,337.5643,105.2520,254.8811,0,U,50485,999,22058,.2527313E-4,.23E-6,0
ONEWEB-0406,2021-132T,2026-06-06T12:00:58.989600,13.18684487,.00024125,87.9159,337.5831,90.6903,269.4505,0,U,50486,999,22021,.12995003E-3,.64E-6,0
ONEWEB-0407,2021-132U,2026-06-06T11:51:16.794432,13.18685211,.0001598,87.9167,337.5760,89.2268,270.9048,0,U,50487,999,22015,-.36325886E-3,-.13E-5,0
ONEWEB-0409,2021-132V,2026-06-06T08:14:00.926592,13.11416229,.00019662,87.8895,23.2140,90.6435,269.4919,0,U,50488,999,21416,-.14764469E-2,-.511E-5,0
ONEWEB-0412,2021-132W,2026-06-06T11:34:16.032000,13.18685985,.000175,87.9165,337.5875,79.9576,280.1754,0,U,50489,999,22024,-.62518634E-3,-.234E-5,0
ONEWEB-0413,2021-132X,2026-06-06T11:41:33.102816,13.18680150,.00015864,87.9155,337.5856,82.2779,277.8533,0,U,50490,999,22018,.41885515E-4,.29E-6,0
ONEWEB-0414,2021-132Y,2026-06-06T11:19:42.584160,13.18684447,.00018846,87.9167,337.5695,86.1316,274.0032,0,U,50491,999,22021,.13771126E-3,.67E-6,0
ONEWEB-0417,2021-132Z,2026-06-06T11:31:50.891232,13.18684461,.00020425,87.9157,337.5887,91.5447,268.5920,0,U,50492,999,22019,.60693584E-4,.37E-6,0
ONEWEB-0418,2021-132AA,2026-06-06T11:46:13.888128,13.18685270,.00021185,87.9165,337.5851,93.1943,266.9432,0,U,50493,999,22025,-.17174248E-3,-.55E-6,0
ONEWEB-0419,2021-132AB,2026-06-06T12:12:46.256544,13.18665454,.00020107,87.9166,337.5806,96.9262,263.2098,0,U,50494,999,22017,.44487488E-4,.3E-6,0
ONEWEB-0420,2021-132AC,2026-06-06T11:22:08.169024,13.18684697,.00016306,87.9160,337.5921,90.8873,269.2446,0,U,50495,999,22016,.34008385E-3,.147E-5,0
ONEWEB-0421,2021-132AD,2026-06-06T13:01:40.635552,13.18687343,.00019981,87.9164,337.5754,79.9669,280.1689,0,U,50496,999,22021,-.12685373E-2,-.487E-5,0
ONEWEB-0424,2021-132AE,2026-06-06T12:05:50.368416,13.18686512,.00019253,87.9165,337.5805,100.4771,259.6578,0,U,50497,999,22023,-.46884857E-3,-.172E-5,0
ONEWEB-0426,2021-132AF,2026-06-06T12:55:38.119296,13.18687471,.00024832,87.9161,337.5648,82.7580,277.3835,0,U,50498,999,22018,-.89203289E-4,-.22E-6,0
ONEWEB-0427,2021-132AG,2026-06-06T12:03:24.719616,13.18685202,.00020383,87.9167,337.5605,90.4713,269.6653,0,U,50499,999,22020,-.4146926E-3,-.151E-5,0
ONEWEB-0429,2021-132AH,2026-06-06T11:43:59.501568,13.18684725,.00017168,87.9158,337.5888,90.6105,269.5224,0,U,50500,999,22017,.15934639E-4,.19E-6,0
ONEWEB-0430,2021-132AJ,2026-06-06T11:26:59.726688,13.18684809,.00016989,87.9158,337.5895,97.9809,262.1516,0,U,50501,999,22021,-.8825826E-4,-.22E-6,0
ONEWEB-0432,2021-132AK,2026-06-06T12:14:23.847072,13.18617950,.0002029,87.9138,337.5580,118.3687,241.7650,0,U,50502,999,22017,-.2072967E-1,-.8144E-4,0
ONEWEB-0440,2021-132AL,2026-06-06T11:56:07.425024,13.18684675,.00017157,87.9167,337.5804,80.1821,279.9505,0,U,50503,999,22016,.17069129E-3,.8E-6,0
ONEWEB-0450,2021-132AM,2026-06-06T11:46:37.587648,13.18685734,.00016169,87.9156,337.5883,92.0356,268.0962,0,U,50504,999,22019,-.44847934E-3,-.164E-5,0
