ONEWEB-0395             
1 50475U 21132G   26157.33290196 -.00000227  00000+0 -67699-3 0  9996
2 50475  87.8893  23.2284 0001914  91.5798 268.5549 13.11414842214297
ONEWEB-0396             
1 50476U 21132H   26157.54451640 -.00000233  00000+0 -62443-3 0  9992
2 50476  87.9168 337.5725 0001984  88.0242 272.1117 13.18685882220231
ONEWEB-0397             
1 50477U 21132J   26157.48381975  .00000073  00000+0  15142-3 0  9993
2 50477  87.9167 337.5847 0001929  84.1117 276.0235 13.18684715220208
ONEWEB-0398             
1 50478U 21132K   26157.52957562  .00000521  00000+0  14353-2 0  9990
2 50478  87.8911  23.1780 0001802  97.6564 262.4769 13.11420358214213
ONEWEB-0399             
1 50479U 21132L   26157.36341854 -.00000134  00000+0 -41410-3 0  9991
2 50479  87.8907  23.2232 0002397  77.9819 282.1578 13.11418827214187
ONEWEB-0400             
1 50480U 21132M   26157.53778056  .00000083  00000+0  17838-3 0  9998
2 50480  87.9166 337.5635 0001801  97.6784 262.4553 13.18685026220202
ONEWEB-0401             
1 50481U 21132N   26157.50742491 -.00000259  00000+0 -69060-3 0  9991
2 50481  87.9167 337.5665 0001728  82.3016 277.8313 13.18686288220209
ONEWEB-0402             
1 50482U 21132P   26157.47034513 -.00000199  00000+0 -53676-3 0  9996
2 50482  87.9167 337.5637 0001693  75.6645 284.4675 13.18686053220220
ONEWEB-0403             
1 50483U 21132Q   26157.49562073 -.00000229  00000+0 -61237-3 0  9992
2 50483  87.9165 337.5826 0001980  91.2048 268.9311 13.18685675220187
ONEWEB-0404             
1 50484U 21132R   26157.11587406 -.00000496  00000+0 -14341-2 0  9998
2 50484  87.8892  23.2714 0002079  86.6536 273.4830 13.11416474214248
ONEWEB-0405             
1 50485U 21132S   26157.50912780  .00000023  00000+0  25273-4 0  9991
2 50485  87.9169 337.5643 0001793 105.2520 254.8811 13.18686199220588
ONEWEB-0406             
1 50486U 21132T   26157.50068275  .00000064  00000+0  12995-3 0  9994
2 50486  87.9159 337.5831 0002412  90.6903 269.4505 13.18684487220218
ONEWEB-0407             
1 50487U 21132U   26157.49394438 -.00000130  00000+0 -36326-3 0  9996
2 50487  87.9167 337.5760 0001598  89.2268 270.9048 13.18685211220159
ONEWEB-0409             
1 50488U 21132V   26157.34306628 -.00000511  00000+0 -14764-2 0  9999
2 50488  87.8895  23.2140 0001966  90.6435 269.4919 13.11416229214167
ONEWEB-0412             
1 50489U 21132W   26157.48213000 -.00000234  00000+0 -62519-3 0  9990
2 50489  87.9165 337.5875 0001750  79.9576 280.1754 13.18685985220249
ONEWEB-0413             
1 50490U 21132X   26157.48718869  .00000029  00000+0  41886-4 0  9990
2 50490  87.9155 337.5856 0001586  82.2779 277.8533 13.18680150220188
ONEWEB-0414             
1 50491U 21132Y   26157.47202065  .00000067  00000+0  13771-3 0  9999
2 50491  87.9167 337.5695 0001884  86.1316 274.0032 13.18684447220214
ONEWEB-0417             
1 50492U 21132Z   26157.48045013  .00000037  00000+0  60694-4 0  9993
2 50492  87.9157 337.5887 0002042  91.5447 268.5920 13.18684461220196
ONEWEB-0418             
1 50493U 21132AA  26157.49043852 -.00000055  00000+0 -17174-3 0  9990
2 50493  87.9165 337.5851 0002118  93.1943 266.9432 13.18685270220256
ONEWEB-0419             
1 50494U 21132AB  26157.50886871  .00000030  00000+0  44487-4 0  9998
2 50494  87.9166 337.5806 0002010  96.9262 263.2098 13.18665454220175
ONEWEB-0420             
1 50495U 21132AC  26157.47370566  .00000147  00000+0  34008-3 0  9990
2 50495  87.9160 337.5921 0001630  90.8873 269.2446 13.18684697220168
ONEWEB-0421             
1 50496U 21132AD  26157.54283143 -.00000487  00000+0 -12685-2 0  9998
2 50496  87.9164 337.5754 0001998  79.9669 280.1689 13.18687343220213
ONEWEB-0424             
1 50497U 21132AE  26157.50405519 -.00000172  00000+0 -46885-3 0  9999
2 50497  87.9165 337.5805 0001925 100.4771 259.6578 13.18686512220233
ONEWEB-0426             
1 50498U 21132AF  26157.53863564 -.00000022  00000+0 -89203-4 0  9997
2 50498  87.9161 337.5648 0002483  82.7580 277.3835 13.18687471220187
ONEWEB-0427             
1 50499U 21132AG  26157.50236944 -.00000151  00000+0 -41469-3 0  9995
2 50499  87.9167 337.5605 0002038  90.4713 269.6653 13.18685202220202
ONEWEB-0429             
1 50500U 21132AH  26157.48888312  .00000019  00000+0  15935-4 0  9998
2 50500  87.9158 337.5888 0001716  90.6105 269.5224 13.18684725220175
ONEWEB-0430             
1 50501U 21132AJ  26157.47708017 -.00000022  00000+0 -88258-4 0  9995
2 50501  87.9158 337.5895 0001698  97.9809 262.1516 13.18684809220215
ONEWEB-0432             
1 50502U 21132AK  26157.50999823 -.00008144  00000+0 -20730-1 0  9998
2 50502  87.9138 337.5580 0002029 118.3687 241.7650 13.18617950220176
ONEWEB-0440             
1 50503U 21132AL  26157.49730816  .00000080  00000+0  17069-3 0  9994
2 50503  87.9167 337.5804 0001715  80.1821 279.9505 13.18684675220164
ONEWEB-0450             
1 50504U 21132AM  26157.49071282 -.00000164  00000+0 -44848-3 0  9990
2 50504  87.9156 337.5883 0001616  92.0356 268.0962 13.18685734220191
